H1 CPF  1  MCC 2022  1 11 14  5111 larets
H2  0304206 5557    27944 2022 01 10 23 45 00 2022 01 15 23 57 00   180 1 1  0 0 0
H9
10 0 59594 22140.000000 0      3275639.956     -4947765.223     -3835778.937
10 0 59594 22320.000000 0      3348003.525     -5625231.299     -2652475.818
10 0 59594 22500.000000 0      3283449.313     -6098126.144     -1371975.272
10 0 59594 22680.000000 0      3089758.939     -6345354.002       -41116.807
10 0 59594 22860.000000 0      2779924.347     -6354361.441      1291240.693
10 0 59594 23040.000000 0      2371459.102     -6121786.252      2576069.587
10 0 59594 23220.000000 0      1885510.864     -5653714.474      3766050.432
10 0 59594 23400.000000 0      1345821.783     -4965528.296      4817375.274
10 0 59594 23580.000000 0       777597.659     -4081362.991      5691400.238
10 0 59594 23760.000000 0       206343.383     -3033198.165      6356082.798
10 0 59594 23940.000000 0      -343276.755     -1859629.423      6787139.625
10 0 59594 24120.000000 0      -848497.541      -604394.570      6968897.915
10 0 59594 24300.000000 0     -1289390.546       685290.863      6894833.874
10 0 59594 24480.000000 0     -1649648.302      1960532.582      6567783.094
10 0 59594 24660.000000 0     -1917187.207      3172623.789      5999822.097
10 0 59594 24840.000000 0     -2084551.343      4274917.718      5211828.651
10 0 59594 25020.000000 0     -2149105.323      5224644.375      4232732.298
10 0 59594 25200.000000 0     -2113010.978      5984606.141      3098467.594
10 0 59594 25380.000000 0     -1982988.337      6524675.813      1850655.613
10 0 59594 25560.000000 0     -1769871.321      6823027.507       535059.977
10 0 59594 25740.000000 0     -1487977.049      6867040.563      -800123.260
10 0 59594 25920.000000 0     -1154323.489      6653830.647     -2106074.092
10 0 59594 26100.000000 0      -787733.967      6190367.790     -3335177.751
10 0 59594 26280.000000 0      -407882.853      5493184.403     -4442771.835
10 0 59594 26460.000000 0       -34332.605      4587715.477     -5388750.175
10 0 59594 26640.000000 0       314393.964      3507305.778     -6138970.952
10 0 59594 26820.000000 0       621664.527      2291934.034     -6666425.354
10 0 59594 27000.000000 0       873473.551       986715.221     -6952136.497
10 0 59594 27180.000000 0      1059039.496      -359756.306     -6985781.976
10 0 59594 27360.000000 0      1171243.946     -1697175.407     -6766035.490
10 0 59594 27540.000000 0      1206899.893     -2975352.224     -6300622.182
10 0 59594 27720.000000 0      1166844.444     -4146050.230     -5606097.131
10 0 59594 27900.000000 0      1055848.769     -5164796.970     -4707333.352
10 0 59594 28080.000000 0       882347.700     -5992597.534     -3636714.698
10 0 59594 28260.000000 0       657993.322     -6597490.110     -2433044.020
10 0 59594 28440.000000 0       397048.480     -6955869.153     -1140182.656
10 0 59594 28620.000000 0       115644.460     -7053503.536       194542.486
10 0 59594 28800.000000 0      -169063.842     -6886180.817      1522103.957
10 0 59594 28980.000000 0      -439800.923     -6459937.149      2793633.612
10 0 59594 29160.000000 0      -680083.142     -5790847.371      3962296.033
10 0 59594 29340.000000 0      -875088.987     -4904377.876      4985075.139
10 0 59594 29520.000000 0     -1012442.013     -3834353.626      5824391.296
10 0 59594 29700.000000 0     -1082864.863     -2621592.807      6449492.144
10 0 59594 29880.000000 0     -1080673.310     -1312275.957      6837558.614
10 0 59594 30060.000000 0     -1004090.634        43860.965      6974501.474
10 0 59594 30240.000000 0      -855375.113      1395446.585      6855441.496
10 0 59594 30420.000000 0      -640750.213      2691437.786      6484861.654
10 0 59594 30600.000000 0      -370140.875      3883059.190      5876431.836
10 0 59594 30780.000000 0       -56729.680      4925654.296      5052512.798
10 0 59594 30960.000000 0       283651.600      5780386.485      4043351.082
10 0 59594 31140.000000 0       633270.992      6415723.186      2885980.726
10 0 59594 31320.000000 0       973353.538      6808648.948      1622870.413
10 0 59594 31500.000000 0      1285010.739      6945541.202       300336.819
10 0 59594 31680.000000 0      1550189.650      6822650.903     -1033192.403
10 0 59594 31860.000000 0      1752593.103      6446176.188     -2328990.826
10 0 59594 32040.000000 0      1878522.893      5831931.773     -3539842.356
10 0 59594 32220.000000 0      1917606.246      5004634.309     -4621773.123
10 0 59594 32400.000000 0      1863370.391      3996842.619     -5535631.071
10 0 59594 32580.000000 0      1713639.846      2847619.804     -6248452.709
10 0 59594 32760.000000 0      1470743.031      1600987.049     -6734583.774
10 0 59594 32940.000000 0      1141523.904       304237.258     -6976529.265
10 0 59594 33120.000000 0       737161.400      -993829.490     -6965528.083
10 0 59594 33300.000000 0       272799.127     -2244696.773     -6701843.186
10 0 59594 33480.000000 0      -233000.605     -3401893.568     -6194770.613
10 0 59594 33660.000000 0      -758968.646     -4422692.073     -5462368.082
10 0 59594 33840.000000 0     -1281986.369     -5269689.112     -4530889.784
10 0 59594 34020.000000 0     -1778064.559     -5912219.251     -3433931.519
10 0 59594 34200.000000 0     -2223409.420     -6327539.192     -2211289.046
10 0 59594 34380.000000 0     -2595528.598     -6501723.713      -907554.853
10 0 59594 34560.000000 0     -2874324.206     -6430220.571       429509.401
10 0 59594 34740.000000 0     -3043113.267     -6118016.478      1750763.776
10 0 59594 34920.000000 0     -3089516.467     -5579394.585      3007561.170
10 0 59594 35100.000000 0     -3006163.499     -4837291.423      4153608.808
10 0 59594 35280.000000 0     -2791175.590     -3922289.941      5146729.908
10 0 59594 35460.000000 0     -2448403.595     -2871304.502      5950448.006
10 0 59594 35640.000000 0     -1987408.276     -1726029.335      6535328.907
10 0 59594 35820.000000 0     -1423187.185      -531233.368      6880038.525
10 0 59594 36000.000000 0      -775664.517       667029.599      6972085.754
10 0 59594 36180.000000 0       -68970.542      1823214.700      6808238.766
10 0 59594 36360.000000 0       669470.559      2894027.648      6394620.300
10 0 59594 36540.000000 0      1410013.096      3840054.452      5746474.226
10 0 59594 36720.000000 0      2121981.786      4627226.194      4887615.040
10 0 59594 36900.000000 0      2774943.884      5228071.527      3849569.772
10 0 59594 37080.000000 0      3340010.523      5622703.804      2670432.773
10 0 59594 37260.000000 0      3791113.485      5799510.274      1393466.264
10 0 59594 37440.000000 0      4106190.687      5755496.225        65484.085
10 0 59594 37620.000000 0      4268218.014      5496267.019     -1264903.139
10 0 59594 37800.000000 0      4266039.411      5035650.537     -2549106.105
10 0 59594 37980.000000 0      4094952.436      4394987.289     -3740358.944
10 0 59594 38160.000000 0      3757019.856      3602127.162     -4795428.116
10 0 59594 38340.000000 0      3261101.725      2690192.542     -5676155.591
10 0 59594 38520.000000 0      2622613.126      1696173.901     -6350787.283
10 0 59594 38700.000000 0      1863023.848       659424.484     -6795047.405
10 0 59594 38880.000000 0      1009128.715      -379879.474     -6992938.779
10 0 59594 39060.000000 0        92114.875     -1382260.425     -6937269.495
10 0 59594 39240.000000 0      -853549.353     -2310398.702     -6629894.069
10 0 59594 39420.000000 0     -1791370.020     -3130487.600     -6081675.073
10 0 59594 39600.000000 0     -2684198.670     -3813453.706     -5312157.617
10 0 59594 39780.000000 0     -3495680.269     -4336004.038     -4348956.607
10 0 59594 39960.000000 0     -4191735.754     -4681464.631     -3226850.227
10 0 59594 40140.000000 0     -4742014.682     -4840366.942     -1986589.276
10 0 59594 40320.000000 0     -5121252.503     -4810749.093      -673449.433
10 0 59594 40500.000000 0     -5310459.414     -4598146.855       664429.031
10 0 59594 40680.000000 0     -5297871.695     -4215265.348      1977851.190
10 0 59594 40860.000000 0     -5079603.132     -3681336.161      3218446.374
10 0 59594 41040.000000 0     -4659956.682     -3021192.433      4340519.223
10 0 59594 41220.000000 0     -4051380.426     -2264114.517      5302787.427
10 0 59594 41400.000000 0     -3274072.406     -1442510.219      6069924.256
10 0 59594 41580.000000 0     -2355265.758      -590504.125      6613853.178
10 0 59594 41760.000000 0     -1328221.742       257504.708      6914754.350
10 0 59594 41940.000000 0      -230980.857      1068244.916      6961746.631
10 0 59594 42120.000000 0       895070.357      1810881.805      6753248.740
10 0 59594 42300.000000 0      2006774.422      2458194.733      6297014.714
10 0 59594 42480.000000 0      3060865.710      2987578.340      5609843.772
10 0 59594 42660.000000 0      4015667.036      3381839.251      4716977.178
10 0 59594 42840.000000 0      4832757.117      3629761.578      3651186.863
10 0 59594 43020.000000 0      5478546.068      3726420.143      2451585.633
10 0 59594 43200.000000 0      5925687.988      3673224.122      1162180.946
10 0 59594 43380.000000 0      6154254.349      3477687.921      -169766.584
10 0 59594 43560.000000 0      6152611.305      3152940.405     -1495516.757
10 0 59594 43740.000000 0      5917953.571      2716997.490     -2766671.902
10 0 59594 43920.000000 0      5456473.600      2191843.915     -3936966.661
10 0 59594 44100.000000 0      4783166.712      1602370.925     -4963953.157
10 0 59594 44280.000000 0      3921283.946       975224.872     -5810511.819
10 0 59594 44460.000000 0      2901474.345       337630.200     -6446133.117
10 0 59594 44640.000000 0      1760661.899      -283760.996     -6847945.441
10 0 59594 44820.000000 0       540707.149      -863949.192     -7001469.449
10 0 59594 45000.000000 0      -713102.967     -1380562.393     -6901095.084
99
